NORAD_CAT_ID,OBJECT_NAME,OBJECT_TYPE,EPOCH,MEAN_MOTION,ECCENTRICITY,INCLINATION,RA_OF_ASC_NODE,ARG_OF_PERICENTER,MEAN_ANOMALY,BSTAR,MEAN_MOTION_DOT,MEAN_MOTION_DDOT,TLE_LINE0,TLE_LINE1,TLE_LINE2,SEMIMAJOR_AXIS,PERIOD,APOGEE,PERIGEE,DECAYED
55289.0,STARLINK-5320,PAYLOAD,2023-05-20 05:09:53,15.50314571,0.0002806,69.9996,90.2835,258.1949,101.8922,-0.0018134,-0.00101974,0.0,0 STARLINK-5320,1 55289U 23010W   23140.21520671 -.00101974  00000-0 -18134-2 0  9992,2 55289  69.9996  90.2835 0002806 258.1949 101.8922 15.50314571 19432,6793.944,92.884,417.715,413.903,0.0
55289.0,STARLINK-5320,PAYLOAD,2023-05-20 14:00:01,15.48452757,0.0003224,70.0009,89.2767,261.8227,352.2376,-0.018104,-0.0087801,0.0,0 STARLINK-5320,1 55289U 23010W   23140.58334491 -.00878010  00000-0 -18104-1 0  9993,2 55289  70.0009  89.2767 0003224 261.8227 352.2376 15.48452757 19494,6799.389,92.996,423.446,419.062,0.0
55289.0,STARLINK-5320,PAYLOAD,2023-05-20 22:00:01,15.47851512,0.0003397,70.0014,88.3697,261.2745,50.0501,-0.020164,-0.00963761,0.0,0 STARLINK-5320,1 55289U 23010W   23140.91668981 -.00963761  00000-0 -20164-1 0  9991,2 55289  70.0014  88.3697 0003397 261.2745  50.0501 15.47851512  1307,6801.149,93.032,425.325,420.704,0.0
55289.0,STARLINK-5320,PAYLOAD,2023-05-21 06:00:00,15.47154756,0.0003361,70.0013,87.4635,270.1582,97.5499,-0.018965,-0.00878923,0.0,0 STARLINK-5320,1 55289U 23010W   23141.25001157 -.00878923  00000-0 -18965-1 0  9996,2 55289  70.0013  87.4635 0003361 270.1582  97.5499 15.47154756 19595,6803.191,93.074,427.343,422.77,0.0
55289.0,STARLINK-5320,PAYLOAD,2023-05-21 14:00:01,15.46488267,0.0003342,70.0011,86.5582,267.4757,155.8926,-0.019105,-0.00866355,0.0,0 STARLINK-5320,1 55289U 23010W   23141.58334491 -.00866355  00000-0 -19105-1 0  9995,2 55289  70.0011  86.5582 0003342 267.4757 155.8926 15.46488267  1305,6805.146,93.114,429.285,424.736,0.0
55289.0,STARLINK-5320,PAYLOAD,2023-05-21 22:00:00,15.45891,0.0003297,70.0014,85.6538,267.8641,210.3559,-0.021506,-0.00960549,0.0,0 STARLINK-5320,1 55289U 23010W   23141.91667824 -.00960549  00000-0 -21506-1 0  9999,2 55289  70.0014  85.6538 0003297 267.8641 210.3559 15.45891000 19708,6806.898,93.15,431.008,426.519,0.0
55289.0,STARLINK-5320,PAYLOAD,2023-05-22 00:00:00,15.45706338,0.0003297,70.0014,85.4279,267.8272,313.9992,-0.021021,-0.00935143,0.0,0 STARLINK-5320,1 55289U 23010W   23142.00001157 -.00935143  00000-0 -21021-1 0  9995,2 55289  70.0014  85.4279 0003297 267.8272 313.9992 15.45706338  1305,6807.44,93.161,431.55,427.061,0.0
55289.0,STARLINK-5320,PAYLOAD,2023-05-22 14:00:01,15.44531026,0.0003223,70.0012,83.8477,268.6284,317.005,-0.020366,-0.00875096,0.0,0 STARLINK-5320,1 55289U 23010W   23142.58334491 -.00875096  00000-0 -20366-1 0  9999,2 55289  70.0012  83.8477 0003223 268.6284 317.0050 15.44531026 19809,6810.893,93.232,434.954,430.563,0.0
55289.0,STARLINK-5320,PAYLOAD,2023-05-22 22:00:00,15.43936243,0.0003365,70.0013,82.9462,266.205,11.9326,-0.023062,-0.00963171,0.0,0 STARLINK-5320,1 55289U 23010W   23142.91667824 -.00963171  00000-0 -23062-1 0  9993,2 55289  70.0013  82.9462 0003365 266.2050  11.9326 15.43936243  1307,6812.643,93.268,436.8,432.215,0.0
55289.0,STARLINK-5320,PAYLOAD,2023-05-23 06:00:00,15.43237845,0.0003407,70.001,82.0453,273.4879,56.4033,-0.021497,-0.00883373,0.0,0 STARLINK-5320,1 55289U 23010W   23143.25001157 -.00883373  00000-0 -21497-1 0  9997,2 55289  70.0010  82.0453 0003407 273.4879  56.4033 15.43237845 19907,6814.698,93.31,438.885,434.241,0.0
55289.0,STARLINK-5320,PAYLOAD,2023-05-23 22:00:00,15.41975418,0.0003518,70.0013,80.2465,269.0624,161.9552,-0.024543,-0.00959713,0.0,0 STARLINK-5320,1 55289U 23010W   23143.91667824 -.00959713  00000-0 -24543-1 0  9996,2 55289  70.0013  80.2465 0003518 269.0624 161.9552 15.41975418 20009,6818.417,93.387,442.68,437.883,0.0
55289.0,STARLINK-5320,PAYLOAD,2023-05-24 14:00:01,15.40611469,0.0003387,70.0009,78.4506,269.5148,259.59,-0.022877,-0.00862561,0.0,0 STARLINK-5320,1 55289U 23010W   23144.58335648 -.00862561  00000-0 -22877-1 0  9998,2 55289  70.0009  78.4506 0003387 269.5148 259.5900 15.40611469 20114,6822.441,93.469,446.616,441.995,0.0
55289.0,STARLINK-5320,PAYLOAD,2023-05-24 22:00:00,15.40012325,0.0003438,70.0012,77.5543,268.0883,308.7676,-0.025885,-0.0094904,0.0,0 STARLINK-5320,1 55289U 23010W   23144.91667824 -.00949040  00000-0 -25885-1 0  9999,2 55289  70.0012  77.5543 0003438 268.0883 308.7676 15.40012325  1309,6824.21,93.506,448.421,443.729,0.0
55289.0,STARLINK-5320,PAYLOAD,2023-05-25 06:00:00,15.39323584,0.0003462,70.001,76.6586,273.063,350.8485,-0.024623,-0.00887614,0.0,0 STARLINK-5320,1 55289U 23010W   23145.25001157 -.00887614  00000-0 -24623-1 0  9995,2 55289  70.0010  76.6586 0003462 273.0630 350.8485 15.39323584 20214,6826.245,93.548,450.474,445.747,0.0
55289.0,STARLINK-5320,PAYLOAD,2023-05-25 14:00:01,15.38652662,0.0003401,70.0008,75.7638,267.2,42.9836,-0.024319,-0.00859782,0.0,0 STARLINK-5320,1 55289U 23010W   23145.58334491 -.00859782  00000-0 -24319-1 0  9998,2 55289  70.0008  75.7638 0003401 267.2000  42.9836 15.38652662  1307,6828.23,93.588,452.417,447.772,0.0
55289.0,STARLINK-5320,PAYLOAD,2023-05-25 22:00:00,15.38063579,0.0003577,70.001,74.87,268.5296,87.1192,-0.028117,-0.00965427,0.0,0 STARLINK-5320,1 55289U 23010W   23145.91667824 -.00965427  00000-0 -28117-1 0  9998,2 55289  70.0010  74.8700 0003577 268.5296  87.1192 15.38063579 20316,6829.973,93.624,454.281,449.395,0.0
55289.0,STARLINK-5320,PAYLOAD,2023-05-26 00:00:02,15.37875135,0.000344,70.0009,74.6467,271.6178,185.3547,-0.027301,-0.00934374,0.0,0 STARLINK-5320,1 55289U 23010W   23146.00002315 -.00934374  00000-0 -27301-1 0  9998,2 55289  70.0009  74.6467 0003440 271.6178 185.3547 15.37875135  1306,6830.531,93.636,454.746,450.046,0.0
55289.0,STARLINK-5320,PAYLOAD,2023-05-26 14:00:01,15.36689306,0.0003388,70.0007,73.085,270.9105,173.3779,-0.025545,-0.00848128,0.0,0 STARLINK-5320,1 55289U 23010W   23146.58334491 -.00848128  00000-0 -25545-1 0  9993,2 55289  70.0007  73.0850 0003388 270.9105 173.3779 15.36689306 20426,6834.044,93.708,458.225,453.594,0.0
55289.0,STARLINK-5320,PAYLOAD,2023-05-26 22:00:01,15.36103698,0.0003397,70.0008,72.1938,270.9524,216.5176,-0.029948,-0.00964904,0.0,0 STARLINK-5320,1 55289U 23010W   23146.91668981 -.00964904  00000-0 -29948-1 0  9996,2 55289  70.0008  72.1938 0003397 270.9524 216.5176 15.36103698  1301,6835.781,93.744,459.968,455.324,0.0
55289.0,STARLINK-5320,PAYLOAD,2023-05-27 06:00:02,15.35420364,0.0003308,70.0005,71.3035,275.4823,254.3441,-0.02825,-0.00896237,0.0,0 STARLINK-5320,1 55289U 23010W   23147.25002315 -.00896237  00000-0 -28250-1 0  9995,2 55289  70.0005  71.3035 0003308 275.4823 254.3441 15.35420364 20522,6837.809,93.785,461.936,457.412,0.0
55289.0,STARLINK-5320,PAYLOAD,2023-05-27 22:00:00,15.34141302,0.0003329,70.0008,69.5259,268.8296,343.2936,-0.031598,-0.00956734,0.0,0 STARLINK-5320,1 55289U 23010W   23147.91667824 -.00956734  00000-0 -31598-1 0  9998,2 55289  70.0008  69.5259 0003329 268.8296 343.2936 15.34141302 20624,6841.609,93.864,465.752,461.197,0.0
55289.0,STARLINK-5320,PAYLOAD,2023-05-28 06:00:00,15.33471966,0.0003394,70.0005,68.6381,273.6894,18.4375,-0.030539,-0.00909355,0.0,0 STARLINK-5320,1 55289U 23010W   23148.25001157 -.00909355  00000-0 -30539-1 0  9998,2 55289  70.0005  68.6381 0003394 273.6894  18.4375 15.33471966  1300,6843.6,93.905,467.788,463.142,0.0
55289.0,STARLINK-5320,PAYLOAD,2023-05-28 14:00:01,15.32771592,0.0003358,70.0008,67.7513,268.4895,62.8818,-0.028558,-0.00837474,0.0,0 STARLINK-5320,1 55289U 23010W   23148.58334491 -.00837474  00000-0 -28558-1 0  9994,2 55289  70.0008  67.7513 0003358 268.4895  62.8818 15.32771592 20722,6845.684,93.947,469.848,465.251,0.0
55289.0,STARLINK-5320,PAYLOAD,2023-05-28 22:00:00,15.32181102,0.0003387,70.0012,66.8655,270.0361,99.7631,-0.033451,-0.0095233,0.0,0 STARLINK-5320,1 55289U 23010W   23148.91667824 -.00952330  00000-0 -33451-1 0  9997,2 55289  70.0012  66.8655 0003387 270.0361  99.7631 15.32181102 20772,6847.443,93.984,471.627,466.989,0.0
55289.0,STARLINK-5320,PAYLOAD,2023-05-29 04:14:32,15.33319683,0.0003205,69.9988,66.1797,285.7312,74.3511,-0.0088357,-0.00275314,0.0,0 STARLINK-5320,1 55289U 23010W   23149.17675926 -.00275314  00000-0 -88357-2 0  9994,2 55289  69.9988  66.1797 0003205 285.7312  74.3511 15.33319683 20818,6844.053,93.914,468.112,463.725,0.0
55289.0,STARLINK-5320,PAYLOAD,2023-05-29 13:38:54,15.32602758,0.0003852,69.9988,65.1399,271.8959,88.1776,-0.009301,-0.00283088,0.0,0 STARLINK-5320,1 55289U 23010W   23149.56868568 -.00283088  00000-0 -93010-2 0  9992,2 55289  69.9988  65.1399 0003852 271.8959  88.1776 15.32602758 21180,6846.187,93.958,470.689,465.415,0.0
55289.0,STARLINK-5320,PAYLOAD,2023-05-29 14:00:01,15.3081387,0.0003281,70.001,65.0962,269.8143,174.5367,-0.030218,-0.00833688,0.0,0 STARLINK-5320,1 55289U 23010W   23149.58334491 -.00833688  00000-0 -30218-1 0  9994,2 55289  70.0010  65.0962 0003281 269.8143 174.5367 15.30813870 20881,6851.52,94.068,475.633,471.137,0.0
55289.0,STARLINK-5320,PAYLOAD,2023-05-29 21:29:27,15.31829504,0.0004095,69.9987,64.2739,270.3799,89.6908,-0.0080632,-0.00240897,0.0,0 STARLINK-5320,1 55289U 23010W   23149.89545231 -.00240897  00000-0 -80632-2 0  9994,2 55289  69.9987  64.2739 0004095 270.3799  89.6908 15.31829504 21231,6848.491,94.005,473.16,467.552,0.0
55289.0,STARLINK-5320,PAYLOAD,2023-05-29 22:00:00,15.30217981,0.0003225,70.0014,64.213,270.6613,209.7733,-0.035174,-0.00954627,0.0,0 STARLINK-5320,1 55289U 23010W   23149.91667824 -.00954627  00000-0 -35174-1 0  9993,2 55289  70.0014  64.2130 0003225 270.6613 209.7733 15.30217981 20938,6853.298,94.104,477.374,472.953,0.0
55289.0,STARLINK-5320,PAYLOAD,2023-05-30 14:00:01,15.28861965,0.0003183,70.0013,62.4491,266.8857,283.4027,-0.032342,-0.00839457,0.0,0 STARLINK-5320,1 55289U 23010W   23150.58334491 -.00839457  00000-0 -32342-1 0  9996,2 55289  70.0013  62.4491 0003183 266.8857 283.4027 15.28861965 21038,6857.35,94.188,481.398,477.032,0.0
